CCSDS_OMM_VERS = 2.0
CREATION_DATE  = 
ORIGINATOR     = 

OBJECT_NAME    = STARLINK-35935
OBJECT_ID      = 2025-265M
CENTER_NAME    = EARTH
REF_FRAME      = TEME
TIME_SYSTEM    = UTC
MEAN_ELEMENT_THEORY = SGP/SGP4

EPOCH          = 2025-12-15T13:05:53.883456
MEAN_MOTION    = 15.50717657
ECCENTRICITY   = .00013255
INCLINATION    = 43.0008
RA_OF_ASC_NODE = 37.5593
ARG_OF_PERICENTER = 259.6498
MEAN_ANOMALY   = 100.4213

EPHEMERIS_TYPE = 0
CLASSIFICATION_TYPE = U
NORAD_CAT_ID   = 66527
ELEMENT_SET_NO = 999
REV_AT_EPOCH   = 419
BSTAR          = .16714965E-2
MEAN_MOTION_DOT = .99462E-3
MEAN_MOTION_DDOT = 0

CCSDS_OMM_VERS = 2.0
CREATION_DATE  = 
ORIGINATOR     = 

OBJECT_NAME    = STARLINK-35928
OBJECT_ID      = 2025-265N
CENTER_NAME    = EARTH
REF_FRAME      = TEME
TIME_SYSTEM    = UTC
MEAN_ELEMENT_THEORY = SGP/SGP4

EPOCH          = 2025-12-15T13:05:24.594720
MEAN_MOTION    = 15.50596674
ECCENTRICITY   = .00024505
INCLINATION    = 43.0023
RA_OF_ASC_NODE = 37.5569
ARG_OF_PERICENTER = 268.8478
MEAN_ANOMALY   = 91.2102

EPHEMERIS_TYPE = 0
CLASSIFICATION_TYPE = U
NORAD_CAT_ID   = 66528
ELEMENT_SET_NO = 999
REV_AT_EPOCH   = 419
BSTAR          = .11216232E-2
MEAN_MOTION_DOT = .66061E-3
MEAN_MOTION_DDOT = 0

CCSDS_OMM_VERS = 2.0
CREATION_DATE  = 
ORIGINATOR     = 

OBJECT_NAME    = STARLINK-35933
OBJECT_ID      = 2025-265P
CENTER_NAME    = EARTH
REF_FRAME      = TEME
TIME_SYSTEM    = UTC
MEAN_ELEMENT_THEORY = SGP/SGP4

EPOCH          = 2025-12-15T22:00:01.999584
MEAN_MOTION    = 15.40695505
ECCENTRICITY   = .00012222
INCLINATION    = 43.0008
RA_OF_ASC_NODE = 35.7194
ARG_OF_PERICENTER = 264.2359
MEAN_ANOMALY   = 232.8542

EPHEMERIS_TYPE = 0
CLASSIFICATION_TYPE = U
NORAD_CAT_ID   = 66529
ELEMENT_SET_NO = 999
REV_AT_EPOCH   = 550
BSTAR          = .39042237E-3
MEAN_MOTION_DOT = .16037E-3
MEAN_MOTION_DDOT = 0

CCSDS_OMM_VERS = 2.0
CREATION_DATE  = 
ORIGINATOR     = 

OBJECT_NAME    = STARLINK-35961
OBJECT_ID      = 2025-265Q
CENTER_NAME    = EARTH
REF_FRAME      = TEME
TIME_SYSTEM    = UTC
MEAN_ELEMENT_THEORY = SGP/SGP4

EPOCH          = 2025-12-15T22:00:01.999584
MEAN_MOTION    = 15.40694432
ECCENTRICITY   = .00013094
INCLINATION    = 43.0010
RA_OF_ASC_NODE = 35.6588
ARG_OF_PERICENTER = 272.4440
MEAN_ANOMALY   = 249.5328

EPHEMERIS_TYPE = 0
CLASSIFICATION_TYPE = U
NORAD_CAT_ID   = 66530
ELEMENT_SET_NO = 999
REV_AT_EPOCH   = 550
BSTAR          = .26353359E-3
MEAN_MOTION_DOT = .10718E-3
MEAN_MOTION_DDOT = 0

CCSDS_OMM_VERS = 2.0
CREATION_DATE  = 
ORIGINATOR     = 

OBJECT_NAME    = STARLINK-35960
OBJECT_ID      = 2025-265R
CENTER_NAME    = EARTH
REF_FRAME      = TEME
TIME_SYSTEM    = UTC
MEAN_ELEMENT_THEORY = SGP/SGP4

EPOCH          = 2025-12-15T22:00:01.999584
MEAN_MOTION    = 15.40689176
ECCENTRICITY   = .00012609
INCLINATION    = 43.0009
RA_OF_ASC_NODE = 35.5976
ARG_OF_PERICENTER = 269.9869
MEAN_ANOMALY   = 276.8800

EPHEMERIS_TYPE = 0
CLASSIFICATION_TYPE = U
NORAD_CAT_ID   = 66531
ELEMENT_SET_NO = 999
REV_AT_EPOCH   = 550
BSTAR          = .19145631E-3
MEAN_MOTION_DOT = .7699E-4
MEAN_MOTION_DDOT = 0

CCSDS_OMM_VERS = 2.0
CREATION_DATE  = 
ORIGINATOR     = 

OBJECT_NAME    = STARLINK-35914
OBJECT_ID      = 2025-265S
CENTER_NAME    = EARTH
REF_FRAME      = TEME
TIME_SYSTEM    = UTC
MEAN_ELEMENT_THEORY = SGP/SGP4

EPOCH          = 2025-12-15T22:00:01.999584
MEAN_MOTION    = 15.40697686
ECCENTRICITY   = .00015786
INCLINATION    = 43.0008
RA_OF_ASC_NODE = 35.5372
ARG_OF_PERICENTER = 277.4399
MEAN_ANOMALY   = 294.2923

EPHEMERIS_TYPE = 0
CLASSIFICATION_TYPE = U
NORAD_CAT_ID   = 66532
ELEMENT_SET_NO = 999
REV_AT_EPOCH   = 550
BSTAR          = .18986108E-3
MEAN_MOTION_DOT = .7635E-4
MEAN_MOTION_DDOT = 0

CCSDS_OMM_VERS = 2.0
CREATION_DATE  = 
ORIGINATOR     = 

OBJECT_NAME    = STARLINK-35707
OBJECT_ID      = 2025-265T
CENTER_NAME    = EARTH
REF_FRAME      = TEME
TIME_SYSTEM    = UTC
MEAN_ELEMENT_THEORY = SGP/SGP4

EPOCH          = 2025-12-15T13:02:43.828512
MEAN_MOTION    = 15.49030729
ECCENTRICITY   = .00031573
INCLINATION    = 43.0010
RA_OF_ASC_NODE = 37.5429
ARG_OF_PERICENTER = 276.5590
MEAN_ANOMALY   = 83.4910

EPHEMERIS_TYPE = 0
CLASSIFICATION_TYPE = U
NORAD_CAT_ID   = 66533
ELEMENT_SET_NO = 999
REV_AT_EPOCH   = 419
BSTAR          = .97734741E-3
MEAN_MOTION_DOT = .54327E-3
MEAN_MOTION_DDOT = 0

CCSDS_OMM_VERS = 2.0
CREATION_DATE  = 
ORIGINATOR     = 

OBJECT_NAME    = STARLINK-35976
OBJECT_ID      = 2025-265U
CENTER_NAME    = EARTH
REF_FRAME      = TEME
TIME_SYSTEM    = UTC
MEAN_ELEMENT_THEORY = SGP/SGP4

EPOCH          = 2025-12-15T09:57:03.123072
MEAN_MOTION    = 15.50050631
ECCENTRICITY   = .00060772
INCLINATION    = 43.0051
RA_OF_ASC_NODE = 38.2938
ARG_OF_PERICENTER = 127.1063
MEAN_ANOMALY   = 233.0353

EPHEMERIS_TYPE = 0
CLASSIFICATION_TYPE = U
NORAD_CAT_ID   = 66534
ELEMENT_SET_NO = 999
REV_AT_EPOCH   = 417
BSTAR          = .11426931E-2
MEAN_MOTION_DOT = .66046E-3
MEAN_MOTION_DDOT = 0

CCSDS_OMM_VERS = 2.0
CREATION_DATE  = 
ORIGINATOR     = 

OBJECT_NAME    = STARLINK-35514
OBJECT_ID      = 2025-265V
CENTER_NAME    = EARTH
REF_FRAME      = TEME
TIME_SYSTEM    = UTC
MEAN_ELEMENT_THEORY = SGP/SGP4

EPOCH          = 2025-12-15T13:01:57.099072
MEAN_MOTION    = 15.50545822
ECCENTRICITY   = .0005009
INCLINATION    = 43.0013
RA_OF_ASC_NODE = 37.5374
ARG_OF_PERICENTER = 275.3717
MEAN_ANOMALY   = 84.6572

EPHEMERIS_TYPE = 0
CLASSIFICATION_TYPE = U
NORAD_CAT_ID   = 66535
ELEMENT_SET_NO = 999
REV_AT_EPOCH   = 419
BSTAR          = .15333409E-2
MEAN_MOTION_DOT = .90585E-3
MEAN_MOTION_DDOT = 0

CCSDS_OMM_VERS = 2.0
CREATION_DATE  = 
ORIGINATOR     = 

OBJECT_NAME    = STARLINK-35640
OBJECT_ID      = 2025-265W
CENTER_NAME    = EARTH
REF_FRAME      = TEME
TIME_SYSTEM    = UTC
MEAN_ELEMENT_THEORY = SGP/SGP4

EPOCH          = 2025-12-15T11:28:41.673504
MEAN_MOTION    = 15.50603447
ECCENTRICITY   = .00019434
INCLINATION    = 43.0009
RA_OF_ASC_NODE = 37.9105
ARG_OF_PERICENTER = 260.1885
MEAN_ANOMALY   = 99.8756

EPHEMERIS_TYPE = 0
CLASSIFICATION_TYPE = U
NORAD_CAT_ID   = 66536
ELEMENT_SET_NO = 999
REV_AT_EPOCH   = 418
BSTAR          = .84769573E-3
MEAN_MOTION_DOT = .4975E-3
MEAN_MOTION_DDOT = 0

CCSDS_OMM_VERS = 2.0
CREATION_DATE  = 
ORIGINATOR     = 

OBJECT_NAME    = STARLINK-35582
OBJECT_ID      = 2025-265X
CENTER_NAME    = EARTH
REF_FRAME      = TEME
TIME_SYSTEM    = UTC
MEAN_ELEMENT_THEORY = SGP/SGP4

EPOCH          = 2025-12-15T11:28:12.046944
MEAN_MOTION    = 15.50603880
ECCENTRICITY   = .00018226
INCLINATION    = 43.0014
RA_OF_ASC_NODE = 37.9075
ARG_OF_PERICENTER = 267.2354
MEAN_ANOMALY   = 92.8298

EPHEMERIS_TYPE = 0
CLASSIFICATION_TYPE = U
NORAD_CAT_ID   = 66537
ELEMENT_SET_NO = 999
REV_AT_EPOCH   = 418
BSTAR          = .1040946E-2
MEAN_MOTION_DOT = .6126E-3
MEAN_MOTION_DDOT = 0

CCSDS_OMM_VERS = 2.0
CREATION_DATE  = 
ORIGINATOR     = 

OBJECT_NAME    = STARLINK-35577
OBJECT_ID      = 2025-265Y
CENTER_NAME    = EARTH
REF_FRAME      = TEME
TIME_SYSTEM    = UTC
MEAN_ELEMENT_THEORY = SGP/SGP4

EPOCH          = 2025-12-15T11:27:42.391872
MEAN_MOTION    = 15.50614446
ECCENTRICITY   = .00019895
INCLINATION    = 43.0014
RA_OF_ASC_NODE = 37.9052
ARG_OF_PERICENTER = 276.9417
MEAN_ANOMALY   = 83.1217

EPHEMERIS_TYPE = 0
CLASSIFICATION_TYPE = U
NORAD_CAT_ID   = 66538
ELEMENT_SET_NO = 999
REV_AT_EPOCH   = 418
BSTAR          = .10187959E-2
MEAN_MOTION_DOT = .59963E-3
MEAN_MOTION_DDOT = 0

