STARLINK-35935          
1 66527U 25265M   25349.54576254  .00099462  00000+0  16715-2 0  9998
2 66527  43.0008  37.5593 0001325 259.6498 100.4213 15.50717657  4198
STARLINK-35928          
1 66528U 25265N   25349.54542355  .00066061  00000+0  11216-2 0  9994
2 66528  43.0023  37.5569 0002450 268.8478  91.2102 15.50596674  4197
STARLINK-35933          
1 66529U 25265P   25349.91668981  .00016037  00000+0  39042-3 0  9996
2 66529  43.0008  35.7194 0001222 264.2359 232.8542 15.40695505  5508
STARLINK-35961          
1 66530U 25265Q   25349.91668981  .00010718  00000+0  26353-3 0  9999
2 66530  43.0010  35.6588 0001309 272.4440 249.5328 15.40694432  5502
STARLINK-35960          
1 66531U 25265R   25349.91668981  .00007699  00000+0  19146-3 0  9996
2 66531  43.0009  35.5976 0001260 269.9869 276.8800 15.40689176  5500
STARLINK-35914          
1 66532U 25265S   25349.91668981  .00007635  00000+0  18986-3 0  9998
2 66532  43.0008  35.5372 0001578 277.4399 294.2923 15.40697686  5509
STARLINK-35707          
1 66533U 25265T   25349.54356283  .00054327  00000+0  97735-3 0  9996
2 66533  43.0010  37.5429 0003157 276.5590  83.4910 15.49030729  4192
STARLINK-35976          
1 66534U 25265U   25349.41461948  .00066046  00000+0  11427-2 0  9992
2 66534  43.0051  38.2938 0006077 127.1063 233.0353 15.50050631  4179
STARLINK-35514          
1 66535U 25265V   25349.54302198  .00090585  00000+0  15333-2 0  9993
2 66535  43.0013  37.5374 0005009 275.3717  84.6572 15.50545822  4196
STARLINK-35640          
1 66536U 25265W   25349.47826011  .00049750  00000+0  84770-3 0  9991
2 66536  43.0009  37.9105 0001943 260.1885  99.8756 15.50603447  4188
STARLINK-35582          
1 66537U 25265X   25349.47791721  .00061260  00000+0  10409-2 0  9998
2 66537  43.0014  37.9075 0001822 267.2354  92.8298 15.50603880  4181
STARLINK-35577          
1 66538U 25265Y   25349.47757398  .00059963  00000+0  10188-2 0  9992
2 66538  43.0014  37.9052 0001989 276.9417  83.1217 15.50614446  4182
